HELIOS 2A               
1 28492U 04049A   23081.34918088  .00003114  00000+0  29508-3 0  9992
2 28492  98.2704  43.0554 0012438 248.8846 111.1034 14.94347224976605
SPIRALE A               
1 33751U 09008C   23081.22955261  .00000447  00000+0  14219-2 0  9995
2 33751   2.0881 352.8848 5474223  50.4909 346.2760  4.58960489207484
SPIRALE B               
1 33752U 09008D   23080.64011181  .00006584  00000+0  18297-2 0  9993
2 33752   2.2216 330.7486 6843966  84.5685 343.4368  2.84241201132937
SAPPHIRE                
1 39088U 13009C   23081.54362338  .00000294  00000+0  11956-3 0  9998
2 39088  98.4180 275.2070 0011609 164.4769 195.6774 14.34415964527001
